[{"OBJECT_NAME":"STARLINK-31722","OBJECT_ID":"2024-074R","EPOCH":"2026-03-09T03:08:23.709408","MEAN_MOTION":15.27564383,"ECCENTRICITY":8.858e-5,"INCLINATION":43.0032,"RA_OF_ASC_NODE":346.2692,"ARG_OF_PERICENTER":267.8976,"MEAN_ANOMALY":92.1774,"EPHEMERIS_TYPE":0,"CLASSIFICATION_TYPE":"U","NORAD_CAT_ID":59549,"ELEMENT_SET_NO":999,"REV_AT_EPOCH":10593,"BSTAR":-0.00010874237,"MEAN_MOTION_DOT":-3.251e-5,"MEAN_MOTION_DDOT":0},{"OBJECT_NAME":"CZ-2C R\/B","OBJECT_ID":"2014-014B","EPOCH":"2026-03-09T23:01:00.862464","MEAN_MOTION":15.34922702,"ECCENTRICITY":0.00700559,"INCLINATION":98.3314,"RA_OF_ASC_NODE":172.135,"ARG_OF_PERICENTER":276.2597,"MEAN_ANOMALY":83.0667,"EPHEMERIS_TYPE":0,"CLASSIFICATION_TYPE":"U","NORAD_CAT_ID":39625,"ELEMENT_SET_NO":999,"REV_AT_EPOCH":65564,"BSTAR":0.0004934259,"MEAN_MOTION_DOT":0.00018031,"MEAN_MOTION_DDOT":0}]
